[{"OBJECT_NAME":"NOAA 18","OBJECT_ID":"2005-018A","EPOCH":"2026-03-20T22:28:43.942944","MEAN_MOTION":14.13712948,"ECCENTRICITY":0.00149425,"INCLINATION":98.814,"RA_OF_ASC_NODE":160.8856,"ARG_OF_PERICENTER":45.3828,"MEAN_ANOMALY":314.8561,"EPHEMERIS_TYPE":0,"CLASSIFICATION_TYPE":"U","NORAD_CAT_ID":28654,"ELEMENT_SET_NO":999,"REV_AT_EPOCH":7384,"BSTAR":4.499126e-5,"MEAN_MOTION_DOT":4.1e-7,"MEAN_MOTION_DDOT":0},{"OBJECT_NAME":"NOAA 19","OBJECT_ID":"2009-005A","EPOCH":"2026-03-20T22:04:30.864288","MEAN_MOTION":14.13458833,"ECCENTRICITY":0.00126886,"INCLINATION":98.9586,"RA_OF_ASC_NODE":150.7086,"ARG_OF_PERICENTER":280.4654,"MEAN_ANOMALY":79.5088,"EPHEMERIS_TYPE":0,"CLASSIFICATION_TYPE":"U","NORAD_CAT_ID":33591,"ELEMENT_SET_NO":999,"REV_AT_EPOCH":88201,"BSTAR":4.268119e-5,"MEAN_MOTION_DOT":3.5e-7,"MEAN_MOTION_DDOT":0},{"OBJECT_NAME":"SUOMI NPP","OBJECT_ID":"2011-061A","EPOCH":"2026-03-20T21:07:03.027360","MEAN_MOTION":14.19496248,"ECCENTRICITY":0.00012302,"INCLINATION":98.7883,"RA_OF_ASC_NODE":21.3945,"ARG_OF_PERICENTER":180.3715,"MEAN_ANOMALY":179.746,"EPHEMERIS_TYPE":0,"CLASSIFICATION_TYPE":"U","NORAD_CAT_ID":37849,"ELEMENT_SET_NO":999,"REV_AT_EPOCH":74591,"BSTAR":6.8824453e-5,"MEAN_MOTION_DOT":1.01e-6,"MEAN_MOTION_DDOT":0},{"OBJECT_NAME":"NOAA 20 (JPSS-1)","OBJECT_ID":"2017-073A","EPOCH":"2026-03-20T21:28:09.751584","MEAN_MOTION":14.19538853,"ECCENTRICITY":0.00016415,"INCLINATION":98.7706,"RA_OF_ASC_NODE":20.1711,"ARG_OF_PERICENTER":123.274,"MEAN_ANOMALY":236.8594,"EPHEMERIS_TYPE":0,"CLASSIFICATION_TYPE":"U","NORAD_CAT_ID":43013,"ELEMENT_SET_NO":999,"REV_AT_EPOCH":43194,"BSTAR":5.0813855e-5,"MEAN_MOTION_DOT":6.3e-7,"MEAN_MOTION_DDOT":0}]
