NOAA 18                 
1 28654U 05018A   26079.93661971  .00000041  00000+0  44991-4 0  9990
2 28654  98.8140 160.8856 0014942  45.3828 314.8561 14.13712948 73841
NOAA 19                 
1 33591U 09005A   26079.91980167  .00000035  00000+0  42681-4 0  9992
2 33591  98.9586 150.7086 0012688 280.4654  79.5088 14.13458833882015
SUOMI NPP               
1 37849U 11061A   26079.87989615  .00000101  00000+0  68824-4 0  9990
2 37849  98.7883  21.3945 0001230 180.3715 179.7460 14.19496248745919
NOAA 20 (JPSS-1)        
1 43013U 17073A   26079.89455731  .00000063  00000+0  50814-4 0  9995
2 43013  98.7706  20.1711 0001641 123.2740 236.8594 14.19538853431948
